CCSDS_OMM_VERS = 2.0
CREATION_DATE  = 
ORIGINATOR     = 

OBJECT_NAME    = UNKNOWN
OBJECT_ID      = 
CENTER_NAME    = EARTH
REF_FRAME      = TEME
TIME_SYSTEM    = UTC
MEAN_ELEMENT_THEORY = SGP/SGP4

EPOCH          = 2026-03-12T13:53:48.203232
MEAN_MOTION    = 14.29820307
ECCENTRICITY   = .0046668
INCLINATION    = 98.5322
RA_OF_ASC_NODE = 295.6024
ARG_OF_PERICENTER = 60.1377
MEAN_ANOMALY   = 300.4431

EPHEMERIS_TYPE = 0
CLASSIFICATION_TYPE = U
NORAD_CAT_ID   = 87204
ELEMENT_SET_NO = 999
REV_AT_EPOCH   = 63827
BSTAR          = .89491E-3
MEAN_MOTION_DOT = .2285E-4
MEAN_MOTION_DDOT = 0

CCSDS_OMM_VERS = 2.0
CREATION_DATE  = 
ORIGINATOR     = 

OBJECT_NAME    = UNKNOWN
OBJECT_ID      = 
CENTER_NAME    = EARTH
REF_FRAME      = TEME
TIME_SYSTEM    = UTC
MEAN_ELEMENT_THEORY = SGP/SGP4

EPOCH          = 2026-03-14T19:17:57.256224
MEAN_MOTION    = 14.47294423
ECCENTRICITY   = .0051478
INCLINATION    = 99.0867
RA_OF_ASC_NODE = 85.2797
ARG_OF_PERICENTER = 244.4961
MEAN_ANOMALY   = 290.5686

EPHEMERIS_TYPE = 0
CLASSIFICATION_TYPE = U
NORAD_CAT_ID   = 87211
ELEMENT_SET_NO = 999
REV_AT_EPOCH   = 72108
BSTAR          = .11325E-2
MEAN_MOTION_DOT = .4163E-4
MEAN_MOTION_DDOT = 0

CCSDS_OMM_VERS = 2.0
CREATION_DATE  = 
ORIGINATOR     = 

OBJECT_NAME    = UNKNOWN
OBJECT_ID      = 
CENTER_NAME    = EARTH
REF_FRAME      = TEME
TIME_SYSTEM    = UTC
MEAN_ELEMENT_THEORY = SGP/SGP4

EPOCH          = 2026-03-15T11:44:48.638976
MEAN_MOTION    = 13.84304155
ECCENTRICITY   = .0067615
INCLINATION    = 100.3287
RA_OF_ASC_NODE = 87.2789
ARG_OF_PERICENTER = 16.5320
MEAN_ANOMALY   = 343.8015

EPHEMERIS_TYPE = 0
CLASSIFICATION_TYPE = U
NORAD_CAT_ID   = 87214
ELEMENT_SET_NO = 999
REV_AT_EPOCH   = 61307
BSTAR          = .14982E-2
MEAN_MOTION_DOT = .1652E-4
MEAN_MOTION_DDOT = 0

CCSDS_OMM_VERS = 2.0
CREATION_DATE  = 
ORIGINATOR     = 

OBJECT_NAME    = UNKNOWN
OBJECT_ID      = 
CENTER_NAME    = EARTH
REF_FRAME      = TEME
TIME_SYSTEM    = UTC
MEAN_ELEMENT_THEORY = SGP/SGP4

EPOCH          = 2026-03-15T15:35:08.438208
MEAN_MOTION    = 13.91846771
ECCENTRICITY   = .0103295
INCLINATION    = 99.2402
RA_OF_ASC_NODE = 134.8754
ARG_OF_PERICENTER = 33.7045
MEAN_ANOMALY   = 117.2214

EPHEMERIS_TYPE = 0
CLASSIFICATION_TYPE = U
NORAD_CAT_ID   = 87237
ELEMENT_SET_NO = 999
REV_AT_EPOCH   = 62468
BSTAR          = .23536E-3
MEAN_MOTION_DOT = .269E-5
MEAN_MOTION_DDOT = 0

CCSDS_OMM_VERS = 2.0
CREATION_DATE  = 
ORIGINATOR     = 

OBJECT_NAME    = UNKNOWN
OBJECT_ID      = 
CENTER_NAME    = EARTH
REF_FRAME      = TEME
TIME_SYSTEM    = UTC
MEAN_ELEMENT_THEORY = SGP/SGP4

EPOCH          = 2026-03-15T05:29:13.197408
MEAN_MOTION    = 14.54118139
ECCENTRICITY   = .0021436
INCLINATION    = 82.8745
RA_OF_ASC_NODE = 4.1840
ARG_OF_PERICENTER = 98.1973
MEAN_ANOMALY   = 262.1659

EPHEMERIS_TYPE = 0
CLASSIFICATION_TYPE = U
NORAD_CAT_ID   = 87239
ELEMENT_SET_NO = 999
REV_AT_EPOCH   = 64130
BSTAR          = .31673E-2
MEAN_MOTION_DOT = .13456E-3
MEAN_MOTION_DDOT = 0

CCSDS_OMM_VERS = 2.0
CREATION_DATE  = 
ORIGINATOR     = 

OBJECT_NAME    = UNKNOWN
OBJECT_ID      = 
CENTER_NAME    = EARTH
REF_FRAME      = TEME
TIME_SYSTEM    = UTC
MEAN_ELEMENT_THEORY = SGP/SGP4

EPOCH          = 2026-03-15T15:54:00.196992
MEAN_MOTION    = 14.16789723
ECCENTRICITY   = .0425099
INCLINATION    = 65.6395
RA_OF_ASC_NODE = 159.1078
ARG_OF_PERICENTER = 74.5306
MEAN_ANOMALY   = 69.9315

EPHEMERIS_TYPE = 0
CLASSIFICATION_TYPE = U
NORAD_CAT_ID   = 87245
ELEMENT_SET_NO = 999
REV_AT_EPOCH   = 62736
BSTAR          = .7134E-3
MEAN_MOTION_DOT = .3387E-4
MEAN_MOTION_DDOT = 0

CCSDS_OMM_VERS = 2.0
CREATION_DATE  = 
ORIGINATOR     = 

OBJECT_NAME    = UNKNOWN
OBJECT_ID      = 
CENTER_NAME    = EARTH
REF_FRAME      = TEME
TIME_SYSTEM    = UTC
MEAN_ELEMENT_THEORY = SGP/SGP4

EPOCH          = 2026-03-14T21:04:19.791840
MEAN_MOTION    = 14.23276771
ECCENTRICITY   = .0419916
INCLINATION    = 65.7566
RA_OF_ASC_NODE = 348.3700
ARG_OF_PERICENTER = 24.9202
MEAN_ANOMALY   = 337.1529

EPHEMERIS_TYPE = 0
CLASSIFICATION_TYPE = U
NORAD_CAT_ID   = 87271
ELEMENT_SET_NO = 999
REV_AT_EPOCH   = 62547
BSTAR          = .2475E-2
MEAN_MOTION_DOT = .14028E-3
MEAN_MOTION_DDOT = 0

CCSDS_OMM_VERS = 2.0
CREATION_DATE  = 
ORIGINATOR     = 

OBJECT_NAME    = UNKNOWN
OBJECT_ID      = 
CENTER_NAME    = EARTH
REF_FRAME      = TEME
TIME_SYSTEM    = UTC
MEAN_ELEMENT_THEORY = SGP/SGP4

EPOCH          = 2026-03-15T12:24:59.958432
MEAN_MOTION    = 13.48650631
ECCENTRICITY   = .0127001
INCLINATION    = 64.6179
RA_OF_ASC_NODE = 5.8918
ARG_OF_PERICENTER = 243.0655
MEAN_ANOMALY   = 115.7363

EPHEMERIS_TYPE = 0
CLASSIFICATION_TYPE = U
NORAD_CAT_ID   = 87280
ELEMENT_SET_NO = 999
REV_AT_EPOCH   = 54636
BSTAR          = .58033E-3
MEAN_MOTION_DOT = .297E-5
MEAN_MOTION_DDOT = 0

CCSDS_OMM_VERS = 2.0
CREATION_DATE  = 
ORIGINATOR     = 

OBJECT_NAME    = UNKNOWN
OBJECT_ID      = 
CENTER_NAME    = EARTH
REF_FRAME      = TEME
TIME_SYSTEM    = UTC
MEAN_ELEMENT_THEORY = SGP/SGP4

EPOCH          = 2026-03-15T11:58:45.545664
MEAN_MOTION    = 14.19724773
ECCENTRICITY   = .0427704
INCLINATION    = 65.8952
RA_OF_ASC_NODE = 258.3700
ARG_OF_PERICENTER = 309.7149
MEAN_ANOMALY   = 46.6954

EPHEMERIS_TYPE = 0
CLASSIFICATION_TYPE = U
NORAD_CAT_ID   = 87293
ELEMENT_SET_NO = 999
REV_AT_EPOCH   = 62715
BSTAR          = .64212E-3
MEAN_MOTION_DOT = .3325E-4
MEAN_MOTION_DDOT = 0

CCSDS_OMM_VERS = 2.0
CREATION_DATE  = 
ORIGINATOR     = 

OBJECT_NAME    = UNKNOWN
OBJECT_ID      = 
CENTER_NAME    = EARTH
REF_FRAME      = TEME
TIME_SYSTEM    = UTC
MEAN_ELEMENT_THEORY = SGP/SGP4

EPOCH          = 2026-03-14T10:29:25.338912
MEAN_MOTION    = 13.99814848
ECCENTRICITY   = .0026082
INCLINATION    = 100.1009
RA_OF_ASC_NODE = 70.1923
ARG_OF_PERICENTER = 49.6058
MEAN_ANOMALY   = 310.7373

EPHEMERIS_TYPE = 0
CLASSIFICATION_TYPE = U
NORAD_CAT_ID   = 87300
ELEMENT_SET_NO = 999
REV_AT_EPOCH   = 62594
BSTAR          = .10984E-2
MEAN_MOTION_DOT = .1563E-4
MEAN_MOTION_DDOT = 0

CCSDS_OMM_VERS = 2.0
CREATION_DATE  = 
ORIGINATOR     = 

OBJECT_NAME    = UNKNOWN
OBJECT_ID      = 
CENTER_NAME    = EARTH
REF_FRAME      = TEME
TIME_SYSTEM    = UTC
MEAN_ELEMENT_THEORY = SGP/SGP4

EPOCH          = 2026-03-14T13:48:36.222336
MEAN_MOTION    = 14.75854852
ECCENTRICITY   = .0016098
INCLINATION    = 74.0207
RA_OF_ASC_NODE = 141.1213
ARG_OF_PERICENTER = 84.9725
MEAN_ANOMALY   = 275.3286

EPHEMERIS_TYPE = 0
CLASSIFICATION_TYPE = U
NORAD_CAT_ID   = 87304
ELEMENT_SET_NO = 999
REV_AT_EPOCH   = 66002
BSTAR          = .26033E-3
MEAN_MOTION_DOT = .1757E-4
MEAN_MOTION_DDOT = 0

CCSDS_OMM_VERS = 2.0
CREATION_DATE  = 
ORIGINATOR     = 

OBJECT_NAME    = UNKNOWN
OBJECT_ID      = 
CENTER_NAME    = EARTH
REF_FRAME      = TEME
TIME_SYSTEM    = UTC
MEAN_ELEMENT_THEORY = SGP/SGP4

EPOCH          = 2026-03-14T02:47:34.279008
MEAN_MOTION    = 13.70474977
ECCENTRICITY   = .0421555
INCLINATION    = 66.5914
RA_OF_ASC_NODE = 226.2319
ARG_OF_PERICENTER = 356.2127
MEAN_ANOMALY   = 3.5775

EPHEMERIS_TYPE = 0
CLASSIFICATION_TYPE = U
NORAD_CAT_ID   = 87320
ELEMENT_SET_NO = 999
REV_AT_EPOCH   = 60626
BSTAR          = .60364E-3
MEAN_MOTION_DOT = .929E-5
MEAN_MOTION_DDOT = 0

