UNKNOWN                 
1 87204U          26071.57903013  .00002285  00000+0  89491-3 0  9995
2 87204  98.5322 295.6024 0046668  60.1377 300.4431 14.29820307638271
UNKNOWN                 
1 87211U          26073.80413491  .00004163  00000+0  11325-2 0  9994
2 87211  99.0867  85.2797 0051478 244.4961 290.5686 14.47294423721087
UNKNOWN                 
1 87214U          26074.48945184  .00001652  00000+0  14982-2 0  9993
2 87214 100.3287  87.2789 0067615  16.5320 343.8015 13.84304155613073
UNKNOWN                 
1 87237U          26074.64940322  .00000269  00000+0  23536-3 0  9994
2 87237  99.2402 134.8754 0103295  33.7045 117.2214 13.91846771624680
UNKNOWN                 
1 87239U          26074.22862497  .00013456  00000+0  31673-2 0  9998
2 87239  82.8745   4.1840 0021436  98.1973 262.1659 14.54118139641307
UNKNOWN                 
1 87245U          26074.66250228  .00003387  00000+0  71340-3 0  9994
2 87245  65.6395 159.1078 0425099  74.5306  69.9315 14.16789723627362
UNKNOWN                 
1 87271U          26073.87800685  .00014028  00000+0  24750-2 0  9999
2 87271  65.7566 348.3700 0419916  24.9202 337.1529 14.23276771625470
UNKNOWN                 
1 87280U          26074.51736063  .00000297  00000+0  58033-3 0  9994
2 87280  64.6179   5.8918 0127001 243.0655 115.7363 13.48650631546364
UNKNOWN                 
1 87293U          26074.49913826  .00003325  00000+0  64212-3 0  9990
2 87293  65.8952 258.3700 0427704 309.7149  46.6954 14.19724773627158
UNKNOWN                 
1 87300U          26073.43709883  .00001563  00000+0  10984-2 0  9996
2 87300 100.1009  70.1923 0026082  49.6058 310.7373 13.99814848625948
UNKNOWN                 
1 87304U          26073.57541924  .00001757  00000+0  26033-3 0  9993
2 87304  74.0207 141.1213 0016098  84.9725 275.3286 14.75854852660022
UNKNOWN                 
1 87320U          26073.11636897  .00000929  00000+0  60364-3 0  9990
2 87320  66.5914 226.2319 0421555 356.2127   3.5775 13.70474977606262
